[Satellite]
VERSION=1.1
NAME=WNISAT-1
NICKNAME=WNISAT-1
TLE1=1 39423U 13066H   19317.82321571  .00000106  00000-0  30940-4 0  9994
TLE2=2 39423  97.7889 249.2098 0174685 210.7918 148.2948 14.53073483316963
STATUS=0
